NORAD_CAT_ID,OBJECT_NAME,OBJECT_TYPE,EPOCH,MEAN_MOTION,ECCENTRICITY,INCLINATION,RA_OF_ASC_NODE,ARG_OF_PERICENTER,MEAN_ANOMALY,BSTAR,MEAN_MOTION_DOT,MEAN_MOTION_DDOT,TLE_LINE0,TLE_LINE1,TLE_LINE2,SEMIMAJOR_AXIS,PERIOD,APOGEE,PERIGEE,DECAYED
53579.0,STARLINK-4580,PAYLOAD,2022-10-17 06:00:00,15.73245236,0.0002938,53.2136,225.3928,21.159,206.8489,7.3403e-05,9.712e-05,0.0,0 STARLINK-4580,1 53579U 22101BE  22290.25001157  .00009712  00000-0  73403-4 0  9991,2 53579  53.2136 225.3928 0002938  21.1590 206.8489 15.73245236  9220,6727.766,91.531,351.608,347.655,0.0
53579.0,STARLINK-4580,PAYLOAD,2022-10-17 14:00:01,15.73222356,0.0002518,53.2127,223.7417,18.4843,298.4423,-0.00016353,-0.00023534,0.0,0 STARLINK-4580,1 53579U 22101BE  22290.58334491 -.00023534  00000-0 -16353-3 0  9997,2 53579  53.2127 223.7417 0002518  18.4843 298.4423 15.73222356  1303,6727.831,91.532,351.391,348.00199999999984,0.0
53579.0,STARLINK-4580,PAYLOAD,2022-10-17 22:00:00,15.73247437,0.0002432,53.2116,222.0941,14.99,30.87,-0.00043022,-0.00060698,0.0,0 STARLINK-4580,1 53579U 22101BE  22290.91667824 -.00060698  00000-0 -43022-3 0  9998,2 53579  53.2116 222.0941 0002432  14.9900  30.8700 15.73247437  1308,6727.76,91.53,351.261,347.98900000000015,0.0
53579.0,STARLINK-4580,PAYLOAD,2022-10-18 14:00:01,15.73141802,0.0002537,53.2121,218.7944,20.9003,202.8367,0.00028746,0.00039817,0.0,0 STARLINK-4580,1 53579U 22101BE  22291.58334491  .00039817  00000-0  28746-3 0  9996,2 53579  53.2121 218.7944 0002537  20.9003 202.8367 15.73141802  1305,6728.061,91.537,351.6330000000001,348.219,0.0
53579.0,STARLINK-4580,PAYLOAD,2022-10-18 22:00:00,15.732053400000002,0.0002505999999999,53.2177,217.1359,20.9929,291.725,-1.3944e-05,-2.579e-05,0.0,0 STARLINK-4580,1 53579U 22101BE  22291.91667824 -.00002579  00000-0 -13944-4 0  9994,2 53579  53.2177 217.1359 0002506  20.9929 291.7250 15.73205340  9485,6727.88,91.533,351.431,348.059,0.0
53579.0,STARLINK-4580,PAYLOAD,2022-10-19 06:00:00,15.73269461,0.0002433,53.2145,215.493,10.7207,30.7801,-0.000539,-0.00075825,0.0,0 STARLINK-4580,1 53579U 22101BE  22292.25001157 -.00075825  00000-0 -53900-3 0  9992,2 53579  53.2145 215.4930 0002433  10.7207  30.7801 15.73269461  9545,6727.696999999999,91.529,351.199,347.925,0.0
53579.0,STARLINK-4580,PAYLOAD,2022-10-19 14:00:01,15.73311225,0.0002097,53.2166,213.8381,322.8691,167.63099999999997,-0.0088098,-0.01111705,0.0,0 STARLINK-4580,1 53579U 22101BE  22292.58334491 -.01111705  00000-0 -88098-2 0  9992,2 53579  53.2166 213.8381 0002097 322.8691 167.6310 15.73311225  1307,6727.578,91.527,350.85400000000016,348.032,0.0
53579.0,STARLINK-4580,PAYLOAD,2022-10-19 22:00:00,15.72510036,0.0004522,53.2175,212.1881,280.7228,298.3434,-0.0093292999999999,-0.01135878,0.0,0 STARLINK-4580,1 53579U 22101BE  22292.91667824 -.01135878  00000-0 -93293-2 0  9998,2 53579  53.2175 212.1881 0004522 280.7228 298.3434 15.72510036  1306,6729.863,91.573,354.771,348.685,0.0
53579.0,STARLINK-4580,PAYLOAD,2022-10-20 06:00:00,15.71689768,0.0006755,53.2172,210.5427,271.4949,35.1635,-0.0095458,-0.01125104,0.0,0 STARLINK-4580,1 53579U 22101BE  22293.25001157 -.01125104  00000-0 -95458-2 0  9993,2 53579  53.2172 210.5427 0006755 271.4949  35.1635 15.71689768  9696,6732.204000000002,91.621,358.617,349.522,0.0
53579.0,STARLINK-4580,PAYLOAD,2022-10-20 14:00:01,15.70874045,0.0006014999999999,53.2175,208.8956,269.7082,123.5652,-0.0098525,-0.01121469,0.0,0 STARLINK-4580,1 53579U 22101BE  22293.58334491 -.01121469  00000-0 -98525-2 0  9997,2 53579  53.2175 208.8956 0006015 269.7082 123.5652 15.70874045  1307,6734.535,91.669,360.451,352.349,0.0
53579.0,STARLINK-4580,PAYLOAD,2022-10-20 22:00:00,15.70075175,0.0002673,53.2176,207.2537,272.5777,206.3254,-0.010459,-0.01145741,0.0,0 STARLINK-4580,1 53579U 22101BE  22293.91667824 -.01145741  00000-0 -10459-1 0  9991,2 53579  53.2176 207.2537 0002673 272.5777 206.3254 15.70075175  1300,6736.819,91.715,360.485,356.8830000000001,0.0
53579.0,STARLINK-4580,PAYLOAD,2022-10-21 06:00:00,15.69245819,5.3e-05,53.2172,205.6138,285.0104,278.5554,-0.010556,-0.01119054,0.0,0 STARLINK-4580,1 53579U 22101BE  22294.25001157 -.01119054  00000-0 -10556-1 0  9996,2 53579  53.2172 205.6138 0000530 285.0104 278.5554 15.69245819  9852,6739.191999999999,91.764,361.415,360.7,0.0
53579.0,STARLINK-4580,PAYLOAD,2022-10-21 14:00:01,15.68425604,2.9e-05,53.2174,203.9729,95.809,191.4397,-0.010804,-0.01108155,0.0,0 STARLINK-4580,1 53579U 22101BE  22294.58334491 -.01108155  00000-0 -10804-1 0  9998,2 53579  53.2174 203.9729 0000290  95.8090 191.4397 15.68425604  1306,6741.542,91.812,363.602,363.211,0.0
53579.0,STARLINK-4580,PAYLOAD,2022-10-21 22:00:00,15.6763325,0.0001078,53.2168,202.3374,65.063,304.8768,-0.011512,-0.01158322,0.0,0 STARLINK-4580,1 53579U 22101BE  22294.91667824 -.01158322  00000-0 -11512-1 0  9992,2 53579  53.2168 202.3374 0001078  65.0630 304.8768 15.67633250  1301,6743.813,91.858,366.405,364.951,0.0
53579.0,STARLINK-4580,PAYLOAD,2022-10-22 06:00:00,15.66804916,0.0001207,53.2171,200.703,56.1132,35.5561,-0.0116569999999999,-0.0113612,0.0,0 STARLINK-4580,1 53579U 22101BE  22295.25001157 -.01136120  00000-0 -11657-1 0  9993,2 53579  53.2171 200.7030 0001207  56.1132  35.5561 15.66804916 10013,6746.19,91.907,368.869,367.241,0.0
53579.0,STARLINK-4580,PAYLOAD,2022-10-22 14:00:01,15.65990025,0.0001198,53.2173,199.068,73.5237,98.8931,-0.012028,-0.01134271,0.0,0 STARLINK-4580,1 53579U 22101BE  22295.58334491 -.01134271  00000-0 -12028-1 0  9997,2 53579  53.2173 199.0680 0001198  73.5237  98.8931 15.65990025  1305,6748.53,91.955,371.203,369.586,0.0
53579.0,STARLINK-4580,PAYLOAD,2022-10-22 22:00:00,15.65182118,0.0001240999999999,53.2169,197.4386,84.307,167.87400000000005,-0.012521,-0.01142086,0.0,0 STARLINK-4580,1 53579U 22101BE  22295.91667824 -.01142086  00000-0 -12521-1 0  9994,2 53579  53.2169 197.4386 0001241  84.3070 167.8740 15.65182118  1300,6750.852,92.002,373.555,371.879,0.0
53579.0,STARLINK-4580,PAYLOAD,2022-10-23 14:00:01,15.63548672,0.0001044,53.2174,194.1808,68.3302,340.4572,-0.013262,-0.01134012,0.0,0 STARLINK-4580,1 53579U 22101BE  22296.58334491 -.01134012  00000-0 -13262-1 0  9992,2 53579  53.2174 194.1808 0001044  68.3302 340.4572 15.63548672  1301,6755.553000000001,92.098,378.12300000000016,376.713,0.0
53579.0,STARLINK-4580,PAYLOAD,2022-10-23 22:00:00,15.62735059,0.0001247,53.2175,192.5573,66.3328,59.2879,-0.013687,-0.01133435,0.0,0 STARLINK-4580,1 53579U 22101BE  22296.91667824 -.01133435  00000-0 -13687-1 0  9997,2 53579  53.2175 192.5573 0001247  66.3328  59.2879 15.62735059 10271,6757.898,92.146,380.605,378.92,0.0
53579.0,STARLINK-4580,PAYLOAD,2022-10-24 14:00:01,15.61106903,0.0001113,53.2173,189.3116,81.2092,195.1478,-0.014565,-0.01131792,0.0,0 STARLINK-4580,1 53579U 22101BE  22297.58334491 -.01131792  00000-0 -14565-1 0  9992,2 53579  53.2173 189.3116 0001113  81.2092 195.1478 15.61106903  1300,6762.596,92.242,385.213,383.708,0.0
53579.0,STARLINK-4580,PAYLOAD,2022-10-24 22:00:00,15.60300625,0.0001056,53.2167,187.6944,91.5629,258.6903,-0.015179,-0.0114211,0.0,0 STARLINK-4580,1 53579U 22101BE  22297.91667824 -.01142110  00000-0 -15179-1 0  9996,2 53579  53.2167 187.6944 0001056  91.5629 258.6903 15.60300625  1303,6764.925,92.29,387.504,386.076,0.0
53579.0,STARLINK-4580,PAYLOAD,2022-10-25 06:00:00,15.59487402,0.0001113,53.2164,186.0779,64.3629,358.8126,-0.015658,-0.01141877,0.0,0 STARLINK-4580,1 53579U 22101BE  22298.25001157 -.01141877  00000-0 -15658-1 0  9996,2 53579  53.2164 186.0779 0001113  64.3629 358.8126 15.59487402 10487,6767.276999999999,92.338,389.895,388.388,0.0
53579.0,STARLINK-4580,PAYLOAD,2022-10-25 14:00:01,15.58666695,0.0001211999999999,53.2173,184.4603,73.6579,61.4678,-0.016024,-0.01133376,0.0,0 STARLINK-4580,1 53579U 22101BE  22298.58334491 -.01133376  00000-0 -16024-1 0  9995,2 53579  53.2173 184.4603 0001212  73.6579  61.4678 15.58666695  1304,6769.651999999999,92.387,392.337,390.696,0.0
53579.0,STARLINK-4580,PAYLOAD,2022-10-25 22:00:01,15.57860218,0.0001217,53.2169,182.8489,90.6291,115.5239,-0.016663,-0.01142077,0.0,0 STARLINK-4580,1 53579U 22101BE  22298.91668981 -.01142077  00000-0 -16663-1 0  9993,2 53579  53.2169 182.8489 0001217  90.6291 115.5239 15.57860218  1308,6771.988,92.434,394.677,393.029,0.0
53579.0,STARLINK-4580,PAYLOAD,2022-10-26 06:00:00,15.57046267,0.0001216,53.2165,181.2379,67.6388,208.4388,-0.017186,-0.01142248,0.0,0 STARLINK-4580,1 53579U 22101BE  22299.25001157 -.01142248  00000-0 -17186-1 0  9998,2 53579  53.2165 181.2379 0001216  67.6388 208.4388 15.57046267 10638,6774.348000000001,92.483,397.037,395.389,0.0
53579.0,STARLINK-4580,PAYLOAD,2022-10-26 14:00:01,15.56223404,0.0001071,53.2174,179.6262,68.5206,276.574,-0.0175,-0.01129089,0.0,0 STARLINK-4580,1 53579U 22101BE  22299.58334491 -.01129089  00000-0 -17500-1 0  9992,2 53579  53.2174 179.6262 0001071  68.5206 276.5740 15.56223404  1309,6776.736,92.532,399.326,397.875,0.0
53579.0,STARLINK-4580,PAYLOAD,2022-10-26 22:00:00,15.55412666,0.0001219,53.2175,178.0207,58.5481,354.5778,-0.018104,-0.01132926,0.0,0 STARLINK-4580,1 53579U 22101BE  22299.91667824 -.01132926  00000-0 -18104-1 0  9993,2 53579  53.2175 178.0207 0001219  58.5481 354.5778 15.55412666  1307,6779.09,92.58,401.782,400.129,0.0
53579.0,STARLINK-4580,PAYLOAD,2022-10-27 06:00:00,15.54620705,0.0001229,53.2159,176.4162,65.8073,54.3629,-0.019154,-0.01160921,0.0,0 STARLINK-4580,1 53579U 22101BE  22300.25001157 -.01160921  00000-0 -19154-1 0  9996,2 53579  53.2159 176.4162 0001229  65.8073  54.3629 15.54620705 10797,6781.392,92.627,404.091,402.424,0.0
53579.0,STARLINK-4580,PAYLOAD,2022-10-27 14:00:01,15.53784556,0.0001281,53.2173,174.81,78.0675,108.2584,-0.0192099999999999,-0.01132092,0.0,0 STARLINK-4580,1 53579U 22101BE  22300.58335648 -.01132092  00000-0 -19210-1 0  9998,2 53579  53.2173 174.8100 0001281  78.0675 108.2584 15.53784556  1309,6783.825,92.677,406.559,404.821,0.0
